OBJECT_NAME,OBJECT_ID,EPOCH,MEAN_MOTION,ECCENTRICITY,INCLINATION,RA_OF_ASC_NODE,ARG_OF_PERICENTER,MEAN_ANOMALY,EPHEMERIS_TYPE,CLASSIFICATION_TYPE,NORAD_CAT_ID,ELEMENT_SET_NO,REV_AT_EPOCH,BSTAR,MEAN_MOTION_DOT,MEAN_MOTION_DDOT
DUBAISAT-1,2009-041B,2026-07-17T14:42:35.551872,14.75168609,.00097204,98.0088,331.5440,340.5543,19.5293,0,U,35682,999,90958,.5849216E-4,.344E-5,0
OCEANSAT-2,2009-051A,2026-07-17T13:56:50.960832,13.99655912,.00174952,98.2321,182.3980,146.6327,213.5946,0,U,35931,999,88358,.953646E-6,-.36E-6,0
WORLDVIEW-2 (WV-2),2009-055A,2026-07-17T13:44:51.543456,14.37907319,.00053996,98.4755,271.6088,124.1243,236.0457,0,U,35946,999,88001,.28497986E-4,.42E-6,0
SMOS,2009-059A,2026-07-17T11:45:20.232000,14.39736723,.00011683,98.4430,25.3807,98.2686,261.8635,0,U,36036,999,87781,.45220457E-4,.98E-6,0
YAOGAN-7,2009-069A,2026-07-17T03:31:43.612320,14.78036478,.00233912,98.0030,83.8237,304.7704,55.1305,0,U,36110,999,89405,.33466736E-4,.189E-5,0
TANDEM-X,2010-030A,2026-07-07T11:29:58.986816,15.19154052,.0001887,97.4457,195.8973,94.3019,265.8431,0,U,36605,999,88972,.21566E-4,.386E-5,0
CARTOSAT-2B,2010-035A,2026-07-17T14:07:32.506752,14.78654616,.0012758,97.9933,248.9411,92.8964,267.3707,0,U,36795,999,86434,.12179857E-3,.841E-5,0
YAOGAN-10,2010-038A,2026-07-17T14:44:51.509184,14.85433362,.00016553,97.8965,221.7765,80.1227,72.6588,0,U,36834,999,86172,.68352741E-4,.535E-5,0
COSMO-SKYMED 4,2010-060A,2026-07-17T14:54:11.458080,14.82151236,.00015315,97.8891,21.7802,86.1607,273.9781,0,U,37216,999,84907,.56990567E-4,.401E-5,0
RESOURCESAT-2,2011-015A,2026-07-17T15:14:38.652576,14.21599885,.0011696,98.7631,265.8643,164.2849,195.8693,0,U,37387,999,79050,.33512278E-4,.29E-6,0
HAIYANG-2A,2011-043A,2026-07-17T15:00:24.787296,13.73205437,.00020553,99.3398,200.6022,24.8048,335.3199,0,U,37781,999,75083,.41043713E-4,-.5E-7,0
RASAT,2011-044D,2026-07-17T13:58:20.807328,14.68195164,.00219616,98.0585,289.5158,95.6077,12.2118,0,U,37791,999,79764,.10935522E-3,.583E-5,0
SRMSAT,2011-058D,2026-07-17T11:48:44.277696,14.11581368,.0011702,19.9706,236.0426,176.3977,328.2795,0,U,37841,999,76210,.31755126E-4,.324E-5,0
PLEIADES 1A,2011-076F,2026-07-17T16:06:30.076416,14.58548008,.00016687,98.1969,273.3630,77.3805,76.6060,0,U,38012,999,77643,.60550297E-4,.236E-5,0
ZIYUAN 1-02C (ZY 1-02C),2011-079A,2026-07-17T15:16:33.115296,14.38237412,.00057293,98.4058,265.3071,206.6195,316.5027,0,U,38038,999,76358,.119188E-3,.319E-5,0
ARIRANG-3 (KOMPSAT-3),2012-025B,2026-07-17T14:54:05.853312,14.62230105,.00060785,98.1186,155.5591,32.3108,327.8465,0,U,38338,999,75579,.43862806E-4,.174E-5,0
EXACTVIEW-1 (ADS-1B),2012-039C,2026-07-17T07:01:57.446400,14.24992522,.00119487,98.9807,316.3673,86.0894,274.1650,0,U,38709,999,72699,.33875554E-4,.33E-6,0
SPOT 6,2012-047A,2026-07-17T15:46:26.252256,14.58540346,.00011081,98.2106,265.6072,87.6035,272.5291,0,U,38755,999,73749,.7873332E-4,.32E-5,0
PLEIADES 1B,2012-068A,2026-07-17T14:34:26.361984,14.58536079,.00015494,98.1940,273.2383,77.4652,282.6721,0,U,39019,999,72528,.95705476E-4,.399E-5,0
GOKTURK 2,2012-073A,2026-07-17T14:18:44.844768,14.75570136,.00009901,97.6805,34.5019,100.1531,259.9791,0,U,39030,999,72899,.52409268E-4,.31E-5,0
LANDSAT 8,2013-008A,2026-07-17T13:59:17.996352,14.57095059,.00013616,98.2289,268.3550,91.4282,268.7073,0,U,39084,999,70232,.3147573E-4,.96E-6,0
SARAL,2013-009A,2026-07-17T15:01:54.683040,14.32896166,.00018468,98.5557,24.8088,160.9446,199.1808,0,U,39086,999,69996,.22648073E-4,.18E-6,0
GAOFEN-1,2013-018A,2026-07-17T15:01:49.944864,14.76520738,.00172574,97.9084,270.0736,163.4013,196.7766,0,U,39150,999,71273,.78930685E-4,.5E-5,0
VNREDSAT 1,2013-021B,2026-07-17T14:55:37.148736,14.64886107,.00015616,97.9060,250.8678,79.9350,280.2030,0,U,39160,999,70474,.91279144E-4,.443E-5,0
ARIRANG-5 (KOMPSAT-5),2013-042A,2026-07-17T15:02:41.625888,15.04495217,.00051558,97.6202,24.8996,51.7364,308.4325,0,U,39227,999,70843,.1522074E-5,-.39E-6,0
SKYSAT-A,2013-066C,2026-07-17T09:56:29.341536,15.13121968,.00206687,97.3801,246.8482,205.3975,154.6243,0,U,39418,999,69305,.8670016E-4,.1479E-4,0
DUBAISAT-2,2013-066D,2026-07-17T14:44:09.216384,15.10383903,.00091785,97.4579,187.9674,294.0287,65.9982,0,U,39419,999,69098,.97734757E-4,.1543E-4,0
GPM-CORE,2014-009C,2026-07-17T13:41:28.929408,15.45059416,.00109206,64.9693,206.3253,262.8004,97.1895,0,U,39574,999,70250,.69397155E-4,.3041E-4,0
SENTINEL-1A,2014-016A,2026-07-17T14:34:46.754976,14.59175806,.00015106,98.1738,205.6947,77.7211,282.4158,0,U,39634,999,65445,.14006304E-4,.2E-6,0
KAZEOSAT 1,2014-024A,2026-07-17T14:53:47.755104,14.42038305,.00012142,98.3196,270.3089,82.8879,277.2449,0,U,39731,999,64294,.72840904E-4,.196E-5,0
