DUBAISAT-1              
1 35682U 09041B   26198.61291148  .00000344  00000+0  58492-4 0  9998
2 35682  98.0088 331.5440 0009720 340.5543  19.5293 14.75168609909588
OCEANSAT-2              
1 35931U 09051A   26198.58114538 -.00000036  00000+0  95365-6 0  9990
2 35931  98.2321 182.3980 0017495 146.6327 213.5946 13.99655912883586
WORLDVIEW-2 (WV-2)      
1 35946U 09055A   26198.57281879  .00000042  00000+0  28498-4 0  9999
2 35946  98.4755 271.6088 0005399 124.1243 236.0457 14.37907319880010
SMOS                    
1 36036U 09059A   26198.48981750  .00000098  00000+0  45220-4 0  9992
2 36036  98.4430  25.3807 0001168  98.2686 261.8635 14.39736723877815
YAOGAN-7                
1 36110U 09069A   26198.14703255  .00000189  00000+0  33467-4 0  9992
2 36110  98.0030  83.8237 0023391 304.7704  55.1305 14.78036478894050
TANDEM-X                
1 36605U 10030A   26188.47915494  .00000386  00000+0  21566-4 0  9992
2 36605  97.4457 195.8973 0001887  94.3019 265.8431 15.19154052889726
CARTOSAT-2B             
1 36795U 10035A   26198.58857068  .00000841  00000+0  12180-3 0  9999
2 36795  97.9933 248.9411 0012758  92.8964 267.3707 14.78654616864347
YAOGAN-10               
1 36834U 10038A   26198.61448506  .00000535  00000+0  68353-4 0  9997
2 36834  97.8965 221.7765 0001655  80.1227  72.6588 14.85433362861726
COSMO-SKYMED 4          
1 37216U 10060A   26198.62096595  .00000401  00000+0  56991-4 0  9992
2 37216  97.8891  21.7802 0001531  86.1607 273.9781 14.82151236849079
RESOURCESAT-2           
1 37387U 11015A   26198.63516959  .00000029  00000+0  33512-4 0  9994
2 37387  98.7631 265.8643 0011696 164.2849 195.8693 14.21599885790509
HAIYANG-2A              
1 37781U 11043A   26198.62528689 -.00000005  00000+0  41044-4 0  9999
2 37781  99.3398 200.6022 0002055  24.8048 335.3199 13.73205437750830
RASAT                   
1 37791U 11044D   26198.58218527  .00000583  00000+0  10936-3 0  9998
2 37791  98.0585 289.5158 0021961  95.6077  12.2118 14.68195164797648
SRMSAT                  
1 37841U 11058D   26198.49217914  .00000324  00000+0  31755-4 0  9994
2 37841  19.9706 236.0426 0011702 176.3977 328.2795 14.11581368762101
PLEIADES 1A             
1 38012U 11076F   26198.67118144  .00000236  00000+0  60550-4 0  9997
2 38012  98.1969 273.3630 0001668  77.3805  76.6060 14.58548008776438
ZIYUAN 1-02C (ZY 1-02C) 
1 38038U 11079A   26198.63649439  .00000319  00000+0  11919-3 0  9996
2 38038  98.4058 265.3071 0005729 206.6195 316.5027 14.38237412763582
ARIRANG-3 (KOMPSAT-3)   
1 38338U 12025B   26198.62090108  .00000174  00000+0  43863-4 0  9996
2 38338  98.1186 155.5591 0006078  32.3108 327.8465 14.62230105755791
EXACTVIEW-1 (ADS-1B)    
1 38709U 12039C   26198.29302600  .00000033  00000+0  33876-4 0  9996
2 38709  98.9807 316.3673 0011948  86.0894 274.1650 14.24992522726995
SPOT 6                  
1 38755U 12047A   26198.65724829  .00000320  00000+0  78733-4 0  9997
2 38755  98.2106 265.6072 0001108  87.6035 272.5291 14.58540346737491
PLEIADES 1B             
1 39019U 12068A   26198.60724956  .00000399  00000+0  95705-4 0  9994
2 39019  98.1940 273.2383 0001549  77.4652 282.6721 14.58536079725283
GOKTURK 2               
1 39030U 12073A   26198.59635237  .00000310  00000+0  52409-4 0  9991
2 39030  97.6805  34.5019 0000990 100.1531 259.9791 14.75570136728999
LANDSAT 8               
1 39084U 13008A   26198.58284718  .00000096  00000+0  31476-4 0  9994
2 39084  98.2289 268.3550 0001361  91.4282 268.7073 14.57095059702322
SARAL                   
1 39086U 13009A   26198.62632735  .00000018  00000+0  22648-4 0  9993
2 39086  98.5557  24.8088 0001846 160.9446 199.1808 14.32896166699967
GAOFEN-1                
1 39150U 13018A   26198.62627251  .00000500  00000+0  78931-4 0  9994
2 39150  97.9084 270.0736 0017257 163.4013 196.7766 14.76520738712737
VNREDSAT 1              
1 39160U 13021B   26198.62195774  .00000443  00000+0  91279-4 0  9995
2 39160  97.9060 250.8678 0001561  79.9350 280.2030 14.64886107704746
ARIRANG-5 (KOMPSAT-5)   
1 39227U 13042A   26198.62687067 -.00000039  00000+0  15221-5 0  9999
2 39227  97.6202  24.8996 0005155  51.7364 308.4325 15.04495217708436
SKYSAT-A                
1 39418U 13066C   26198.41422849  .00001479  00000+0  86700-4 0  9996
2 39418  97.3801 246.8482 0020668 205.3975 154.6243 15.13121968693057
DUBAISAT-2              
1 39419U 13066D   26198.61399556  .00001543  00000+0  97735-4 0  9999
2 39419  97.4579 187.9674 0009178 294.0287  65.9982 15.10383903690982
GPM-CORE                
1 39574U 14009C   26198.57047372  .00003041  00000+0  69397-4 0  9998
2 39574  64.9693 206.3253 0010920 262.8004  97.1895 15.45059416702505
SENTINEL-1A             
1 39634U 14016A   26198.60748559  .00000020  00000+0  14006-4 0  9993
2 39634  98.1738 205.6947 0001510  77.7211 282.4158 14.59175806654458
KAZEOSAT 1              
1 39731U 14024A   26198.62069161  .00000196  00000+0  72841-4 0  9992
2 39731  98.3196 270.3089 0001214  82.8879 277.2449 14.42038305642940
